{
    "links": {
        "self": "http://www.neowsapp.com/rest/v1/neo/3698511?api_key=iIulBulltgU6a56xZRHN4H3l9WmuAYTsLGpBGhQ2"
    },
    "id": "3698511",
    "neo_reference_id": "3698511",
    "name": "(2014 HK197)",
    "designation": "2014 HK197",
    "nasa_jpl_url": "http://ssd.jpl.nasa.gov/sbdb.cgi?sstr=3698511",
    "absolute_magnitude_h": 26.4,
    "estimated_diameter": {
        "kilometers": {
            "estimated_diameter_min": 0.0139493823,
            "estimated_diameter_max": 0.0311917671
        },
        "meters": {
            "estimated_diameter_min": 13.9493822934,
            "estimated_diameter_max": 31.1917670523
        },
        "miles": {
            "estimated_diameter_min": 0.0086677416,
            "estimated_diameter_max": 0.0193816595
        },
        "feet": {
            "estimated_diameter_min": 45.7656914036,
            "estimated_diameter_max": 102.3351970157
        }
    },
    "is_potentially_hazardous_asteroid": false,
    "close_approach_data": [
        {
            "close_approach_date": "2014-05-07",
            "close_approach_date_full": "2014-May-07 22:57",
            "epoch_date_close_approach": 1399503420000,
            "relative_velocity": {
                "kilometers_per_second": "15.2232490363",
                "kilometers_per_hour": "54803.6965306778",
                "miles_per_hour": "34052.8857692981"
            },
            "miss_distance": {
                "astronomical": "0.0264955849",
                "lunar": "10.3067825261",
                "kilometers": "3963683.065444163",
                "miles": "2462918.4498209294"
            },
            "orbiting_body": "Earth"
        }
    ],
    "orbital_data": {
        "orbit_id": "4",
        "orbit_determination_date": "2019-02-23 06:43:57",
        "first_observation_date": "2014-04-23",
        "last_observation_date": "2014-04-25",
        "data_arc_in_days": 2,
        "observations_used": 20,
        "orbit_uncertainty": "9",
        "minimum_orbit_intersection": ".0258515",
        "jupiter_tisserand_invariant": "3.331",
        "epoch_osculation": "2456771.5",
        "eccentricity": ".6336067436779885",
        "semi_major_axis": "2.24291525912443",
        "inclination": "5.539399070950079",
        "ascending_node_longitude": "31.63222969005984",
        "orbital_period": "1226.924179070212",
        "perihelion_distance": ".8217890254449283",
        "perihelion_argument": "254.3082377364985",
        "aphelion_distance": "3.664041492803932",
        "perihelion_time": "2456825.916006079052",
        "mean_anomaly": "344.0334370105052",
        "mean_motion": ".2934166643229864",
        "equinox": "J2000",
        "orbit_class": {
            "orbit_class_type": "APO",
            "orbit_class_description": "Near-Earth asteroid orbits which cross the Earth’s orbit similar to that of 1862 Apollo",
            "orbit_class_range": "a (semi-major axis) > 1.0 AU; q (perihelion) < 1.017 AU"
        }
    },
    "is_sentry_object": false
}